STARLINK-4214           
1 52877U 22062AZ  26068.26250873 -.00001070  00000+0 -49117-4 0  9991
2 52877  53.2188  16.0502 0001139  95.1716 264.9407 15.08849130206004
CSC-1                   
1 58022U 23155G   26068.74030489  .00008819  00000+0  54557-3 0  9994
2 58022  97.5446 139.7305 0007504 212.9992 147.0770 15.10035960132723
